[{"OBJECT_NAME":"STARLINK-30756","OBJECT_ID":"2023-162M","EPOCH":"2026-03-09T22:00:01.999584","MEAN_MOTION":15.24289135,"ECCENTRICITY":0.00012395,"INCLINATION":43.0001,"RA_OF_ASC_NODE":131.0506,"ARG_OF_PERICENTER":308.8263,"MEAN_ANOMALY":44.7614,"EPHEMERIS_TYPE":0,"CLASSIFICATION_TYPE":"U","NORAD_CAT_ID":58129,"ELEMENT_SET_NO":999,"REV_AT_EPOCH":572,"BSTAR":0.073732915,"MEAN_MOTION_DOT":0.02042507,"MEAN_MOTION_DDOT":0},{"OBJECT_NAME":"ELEVATION-1","OBJECT_ID":"2025-009BW","EPOCH":"2026-03-09T17:34:53.371488","MEAN_MOTION":15.36649756,"ECCENTRICITY":0.00031551,"INCLINATION":97.3895,"RA_OF_ASC_NODE":153.1078,"ARG_OF_PERICENTER":317.9798,"MEAN_ANOMALY":42.1204,"EPHEMERIS_TYPE":0,"CLASSIFICATION_TYPE":"U","NORAD_CAT_ID":62677,"ELEMENT_SET_NO":999,"REV_AT_EPOCH":12152,"BSTAR":0.00076188329,"MEAN_MOTION_DOT":0.00027253,"MEAN_MOTION_DDOT":0}]
